CCSDS_OMM_VERS = 2.0
CREATION_DATE  = 
ORIGINATOR     = 

OBJECT_NAME    = 2025-274B
OBJECT_ID      = 2025-274B
CENTER_NAME    = EARTH
REF_FRAME      = TEME
TIME_SYSTEM    = UTC
MEAN_ELEMENT_THEORY = SGP/SGP4

EPOCH          = 2025-12-02T18:10:03.249120
MEAN_MOTION    = 14.91673214
ECCENTRICITY   = .0010747
INCLINATION    = 97.7375
RA_OF_ASC_NODE = 264.1291
ARG_OF_PERICENTER = 289.5159
MEAN_ANOMALY   = 70.4898

EPHEMERIS_TYPE = 0
CLASSIFICATION_TYPE = U
NORAD_CAT_ID   = 66651
ELEMENT_SET_NO = 999
REV_AT_EPOCH   = 91
BSTAR          = .5491E-3
MEAN_MOTION_DOT = .5472E-4
MEAN_MOTION_DDOT = 0

CCSDS_OMM_VERS = 2.0
CREATION_DATE  = 
ORIGINATOR     = 

OBJECT_NAME    = 2025-274C
OBJECT_ID      = 2025-274C
CENTER_NAME    = EARTH
REF_FRAME      = TEME
TIME_SYSTEM    = UTC
MEAN_ELEMENT_THEORY = SGP/SGP4

EPOCH          = 2025-12-02T18:09:10.375776
MEAN_MOTION    = 14.91818929
ECCENTRICITY   = .0010526
INCLINATION    = 97.7380
RA_OF_ASC_NODE = 264.1303
ARG_OF_PERICENTER = 296.1312
MEAN_ANOMALY   = 63.8824

EPHEMERIS_TYPE = 0
CLASSIFICATION_TYPE = U
NORAD_CAT_ID   = 66652
ELEMENT_SET_NO = 999
REV_AT_EPOCH   = 91
BSTAR          = .39654E-3
MEAN_MOTION_DOT = .395E-4
MEAN_MOTION_DDOT = 0

CCSDS_OMM_VERS = 2.0
CREATION_DATE  = 
ORIGINATOR     = 

OBJECT_NAME    = 2025-274D
OBJECT_ID      = 2025-274D
CENTER_NAME    = EARTH
REF_FRAME      = TEME
TIME_SYSTEM    = UTC
MEAN_ELEMENT_THEORY = SGP/SGP4

EPOCH          = 2025-12-02T18:09:06.887808
MEAN_MOTION    = 14.91826027
ECCENTRICITY   = .0011431
INCLINATION    = 97.7380
RA_OF_ASC_NODE = 264.1303
ARG_OF_PERICENTER = 291.8749
MEAN_ANOMALY   = 68.1253

EPHEMERIS_TYPE = 0
CLASSIFICATION_TYPE = U
NORAD_CAT_ID   = 66653
ELEMENT_SET_NO = 999
REV_AT_EPOCH   = 91
BSTAR          = .33589E-3
MEAN_MOTION_DOT = .3338E-4
MEAN_MOTION_DDOT = 0

CCSDS_OMM_VERS = 2.0
CREATION_DATE  = 
ORIGINATOR     = 

OBJECT_NAME    = JACK E
OBJECT_ID      = 2025-274E
CENTER_NAME    = EARTH
REF_FRAME      = TEME
TIME_SYSTEM    = UTC
MEAN_ELEMENT_THEORY = SGP/SGP4

EPOCH          = 2025-12-03T00:34:28.522272
MEAN_MOTION    = 14.91992623
ECCENTRICITY   = .0011849
INCLINATION    = 97.7383
RA_OF_ASC_NODE = 264.3946
ARG_OF_PERICENTER = 292.3839
MEAN_ANOMALY   = 67.6124

EPHEMERIS_TYPE = 0
CLASSIFICATION_TYPE = U
NORAD_CAT_ID   = 66654
ELEMENT_SET_NO = 999
REV_AT_EPOCH   = 95
BSTAR          = .45926E-3
MEAN_MOTION_DOT = .4605E-4
MEAN_MOTION_DDOT = 0

CCSDS_OMM_VERS = 2.0
CREATION_DATE  = 
ORIGINATOR     = 

OBJECT_NAME    = 2025-274F
OBJECT_ID      = 2025-274F
CENTER_NAME    = EARTH
REF_FRAME      = TEME
TIME_SYSTEM    = UTC
MEAN_ELEMENT_THEORY = SGP/SGP4

EPOCH          = 2025-12-02T19:43:59.472768
MEAN_MOTION    = 14.92215441
ECCENTRICITY   = .0007841
INCLINATION    = 97.7354
RA_OF_ASC_NODE = 264.1978
ARG_OF_PERICENTER = 321.8361
MEAN_ANOMALY   = 38.2302

EPHEMERIS_TYPE = 0
CLASSIFICATION_TYPE = U
NORAD_CAT_ID   = 66655
ELEMENT_SET_NO = 999
REV_AT_EPOCH   = 92
BSTAR          = .45936E-3
MEAN_MOTION_DOT = .4629E-4
MEAN_MOTION_DDOT = 0

CCSDS_OMM_VERS = 2.0
CREATION_DATE  = 
ORIGINATOR     = 

OBJECT_NAME    = 2025-274G
OBJECT_ID      = 2025-274G
CENTER_NAME    = EARTH
REF_FRAME      = TEME
TIME_SYSTEM    = UTC
MEAN_ELEMENT_THEORY = SGP/SGP4

EPOCH          = 2025-12-03T00:33:22.809024
MEAN_MOTION    = 14.92174032
ECCENTRICITY   = .0012531
INCLINATION    = 97.7381
RA_OF_ASC_NODE = 264.3955
ARG_OF_PERICENTER = 293.9276
MEAN_ANOMALY   = 66.0630

EPHEMERIS_TYPE = 0
CLASSIFICATION_TYPE = U
NORAD_CAT_ID   = 66656
ELEMENT_SET_NO = 999
REV_AT_EPOCH   = 95
BSTAR          = .50145E-3
MEAN_MOTION_DOT = .5058E-4
MEAN_MOTION_DDOT = 0

CCSDS_OMM_VERS = 2.0
CREATION_DATE  = 
ORIGINATOR     = 

OBJECT_NAME    = SPIRONE
OBJECT_ID      = 2025-274H
CENTER_NAME    = EARTH
REF_FRAME      = TEME
TIME_SYSTEM    = UTC
MEAN_ELEMENT_THEORY = SGP/SGP4

EPOCH          = 2025-12-03T02:08:51.041760
MEAN_MOTION    = 14.92355400
ECCENTRICITY   = .0011144
INCLINATION    = 97.7379
RA_OF_ASC_NODE = 264.4623
ARG_OF_PERICENTER = 312.8269
MEAN_ANOMALY   = 47.2013

EPHEMERIS_TYPE = 0
CLASSIFICATION_TYPE = U
NORAD_CAT_ID   = 66657
ELEMENT_SET_NO = 999
REV_AT_EPOCH   = 96
BSTAR          = .50804E-3
MEAN_MOTION_DOT = .5147E-4
MEAN_MOTION_DDOT = 0

CCSDS_OMM_VERS = 2.0
CREATION_DATE  = 
ORIGINATOR     = 

OBJECT_NAME    = 2025-274J
OBJECT_ID      = 2025-274J
CENTER_NAME    = EARTH
REF_FRAME      = TEME
TIME_SYSTEM    = UTC
MEAN_ELEMENT_THEORY = SGP/SGP4

EPOCH          = 2025-12-02T18:05:03.706368
MEAN_MOTION    = 14.92526864
ECCENTRICITY   = .0011783
INCLINATION    = 97.7377
RA_OF_ASC_NODE = 264.1337
ARG_OF_PERICENTER = 316.7606
MEAN_ANOMALY   = 43.2687

EPHEMERIS_TYPE = 0
CLASSIFICATION_TYPE = U
NORAD_CAT_ID   = 66658
ELEMENT_SET_NO = 999
REV_AT_EPOCH   = 91
BSTAR          = .48001E-3
MEAN_MOTION_DOT = .4881E-4
MEAN_MOTION_DDOT = 0

CCSDS_OMM_VERS = 2.0
CREATION_DATE  = 
ORIGINATOR     = 

OBJECT_NAME    = JACK K
OBJECT_ID      = 2025-274K
CENTER_NAME    = EARTH
REF_FRAME      = TEME
TIME_SYSTEM    = UTC
MEAN_ELEMENT_THEORY = SGP/SGP4

EPOCH          = 2025-12-03T02:06:36.852192
MEAN_MOTION    = 14.92715664
ECCENTRICITY   = .0012486
INCLINATION    = 97.7381
RA_OF_ASC_NODE = 264.4643
ARG_OF_PERICENTER = 316.5882
MEAN_ANOMALY   = 43.4353

EPHEMERIS_TYPE = 0
CLASSIFICATION_TYPE = U
NORAD_CAT_ID   = 66659
ELEMENT_SET_NO = 999
REV_AT_EPOCH   = 96
BSTAR          = .47068E-3
MEAN_MOTION_DOT = .4809E-4
MEAN_MOTION_DDOT = 0

CCSDS_OMM_VERS = 2.0
CREATION_DATE  = 
ORIGINATOR     = 

OBJECT_NAME    = K-HERO
OBJECT_ID      = 2025-274L
CENTER_NAME    = EARTH
REF_FRAME      = TEME
TIME_SYSTEM    = UTC
MEAN_ELEMENT_THEORY = SGP/SGP4

EPOCH          = 2025-12-03T02:05:41.370432
MEAN_MOTION    = 14.92867452
ECCENTRICITY   = .0013114
INCLINATION    = 97.7385
RA_OF_ASC_NODE = 264.4654
ARG_OF_PERICENTER = 317.1645
MEAN_ANOMALY   = 42.8552

EPHEMERIS_TYPE = 0
CLASSIFICATION_TYPE = U
NORAD_CAT_ID   = 66660
ELEMENT_SET_NO = 999
REV_AT_EPOCH   = 96
BSTAR          = .49939E-3
MEAN_MOTION_DOT = .5127E-4
MEAN_MOTION_DDOT = 0

CCSDS_OMM_VERS = 2.0
CREATION_DATE  = 
ORIGINATOR     = 

OBJECT_NAME    = SNUGLITE-III
OBJECT_ID      = 2025-274M
CENTER_NAME    = EARTH
REF_FRAME      = TEME
TIME_SYSTEM    = UTC
MEAN_ELEMENT_THEORY = SGP/SGP4

EPOCH          = 2025-12-03T00:28:13.384704
MEAN_MOTION    = 14.93016312
ECCENTRICITY   = .0013821
INCLINATION    = 97.7382
RA_OF_ASC_NODE = 264.4002
ARG_OF_PERICENTER = 318.0542
MEAN_ANOMALY   = 41.9618

EPHEMERIS_TYPE = 0
CLASSIFICATION_TYPE = U
NORAD_CAT_ID   = 66661
ELEMENT_SET_NO = 999
REV_AT_EPOCH   = 95
BSTAR          = .39123E-3
MEAN_MOTION_DOT = .4019E-4
MEAN_MOTION_DDOT = 0

CCSDS_OMM_VERS = 2.0
CREATION_DATE  = 
ORIGINATOR     = 

OBJECT_NAME    = 2025-274N
OBJECT_ID      = 2025-274N
CENTER_NAME    = EARTH
REF_FRAME      = TEME
TIME_SYSTEM    = UTC
MEAN_ELEMENT_THEORY = SGP/SGP4

EPOCH          = 2025-12-02T18:01:47.108352
MEAN_MOTION    = 14.93076371
ECCENTRICITY   = .0014234
INCLINATION    = 97.7381
RA_OF_ASC_NODE = 264.1370
ARG_OF_PERICENTER = 318.3075
MEAN_ANOMALY   = 41.7058

EPHEMERIS_TYPE = 0
CLASSIFICATION_TYPE = U
NORAD_CAT_ID   = 66662
ELEMENT_SET_NO = 999
REV_AT_EPOCH   = 91
BSTAR          = .28428E-3
MEAN_MOTION_DOT = .2909E-4
MEAN_MOTION_DDOT = 0

