2025-274B               
1 66651U 25274B   25336.75698205  .00005472  00000+0  54910-3 0  9994
2 66651  97.7375 264.1291 0010747 289.5159  70.4898 14.91673214   911
2025-274C               
1 66652U 25274C   25336.75637009  .00003950  00000+0  39654-3 0  9997
2 66652  97.7380 264.1303 0010526 296.1312  63.8824 14.91818929   911
2025-274D               
1 66653U 25274D   25336.75632972  .00003338  00000+0  33589-3 0  9993
2 66653  97.7380 264.1303 0011431 291.8749  68.1253 14.91826027   916
JACK E                  
1 66654U 25274E   25337.02394123  .00004605  00000+0  45926-3 0  9994
2 66654  97.7383 264.3946 0011849 292.3839  67.6124 14.91992623   955
2025-274F               
1 66655U 25274F   25336.82221612  .00004629  00000+0  45936-3 0  9991
2 66655  97.7354 264.1978 0007841 321.8361  38.2302 14.92215441   928
2025-274G               
1 66656U 25274G   25337.02318066  .00005058  00000+0  50145-3 0  9990
2 66656  97.7381 264.3955 0012531 293.9276  66.0630 14.92174032   958
SPIRONE                 
1 66657U 25274H   25337.08947965  .00005147  00000+0  50804-3 0  9994
2 66657  97.7379 264.4623 0011144 312.8269  47.2013 14.92355400   968
2025-274J               
1 66658U 25274J   25336.75351512  .00004881  00000+0  48001-3 0  9995
2 66658  97.7377 264.1337 0011783 316.7606  43.2687 14.92526864   915
JACK K                  
1 66659U 25274K   25337.08792653  .00004809  00000+0  47068-3 0  9990
2 66659  97.7381 264.4643 0012486 316.5882  43.4353 14.92715664   964
K-HERO                  
1 66660U 25274L   25337.08728438  .00005127  00000+0  49939-3 0  9995
2 66660  97.7385 264.4654 0013114 317.1645  42.8552 14.92867452   962
SNUGLITE-III            
1 66661U 25274M   25337.01959936  .00004019  00000+0  39123-3 0  9991
2 66661  97.7382 264.4002 0013821 318.0542  41.9618 14.93016312   952
2025-274N               
1 66662U 25274N   25336.75123968  .00002909  00000+0  28428-3 0  9992
2 66662  97.7381 264.1370 0014234 318.3075  41.7058 14.93076371   913
